{
    "links": {
        "self": "http://www.neowsapp.com/rest/v1/neo/54087836?api_key=iIulBulltgU6a56xZRHN4H3l9WmuAYTsLGpBGhQ2"
    },
    "id": "54087836",
    "neo_reference_id": "54087836",
    "name": "(2020 VG5)",
    "designation": "2020 VG5",
    "nasa_jpl_url": "http://ssd.jpl.nasa.gov/sbdb.cgi?sstr=54087836",
    "absolute_magnitude_h": 23.094,
    "estimated_diameter": {
        "kilometers": {
            "estimated_diameter_min": 0.0639374007,
            "estimated_diameter_max": 0.1429683743
        },
        "meters": {
            "estimated_diameter_min": 63.9374007066,
            "estimated_diameter_max": 142.9683742846
        },
        "miles": {
            "estimated_diameter_min": 0.0397288466,
            "estimated_diameter_max": 0.0888364017
        },
        "feet": {
            "estimated_diameter_min": 209.7683817342,
            "estimated_diameter_max": 469.0563610878
        }
    },
    "is_potentially_hazardous_asteroid": false,
    "close_approach_data": [
        {
            "close_approach_date": "2020-11-15",
            "close_approach_date_full": "2020-Nov-15 05:11",
            "epoch_date_close_approach": 1605417060000,
            "relative_velocity": {
                "kilometers_per_second": "14.2531588791",
                "kilometers_per_hour": "51311.371964886",
                "miles_per_hour": "31882.8910967371"
            },
            "miss_distance": {
                "astronomical": "0.3149736396",
                "lunar": "122.5247458044",
                "kilometers": "47119385.590307652",
                "miles": "29278628.5377715176"
            },
            "orbiting_body": "Earth"
        }
    ],
    "orbital_data": {
        "orbit_id": "1",
        "orbit_determination_date": "2020-11-15 11:12:03",
        "first_observation_date": "2020-11-11",
        "last_observation_date": "2020-11-15",
        "data_arc_in_days": 4,
        "observations_used": 22,
        "orbit_uncertainty": "9",
        "minimum_orbit_intersection": ".312246",
        "jupiter_tisserand_invariant": "3.695",
        "epoch_osculation": "2459165.5",
        "eccentricity": ".3335821002015508",
        "semi_major_axis": "1.948275572359445",
        "inclination": "27.36641081321157",
        "ascending_node_longitude": "235.3712600479747",
        "orbital_period": "993.2852923331603",
        "perihelion_distance": "1.298365715160403",
        "perihelion_argument": "170.8104937243751",
        "aphelion_distance": "2.598185429558487",
        "perihelion_time": "2459157.555693891915",
        "mean_anomaly": "2.879283747565384",
        "mean_motion": ".3624336359137909",
        "equinox": "J2000",
        "orbit_class": {
            "orbit_class_type": "AMO",
            "orbit_class_description": "Near-Earth asteroid orbits similar to that of 1221 Amor",
            "orbit_class_range": "1.017 AU < q (perihelion) < 1.3 AU"
        }
    },
    "is_sentry_object": false
}